[{"OBJECT_NAME":"YAOGAN-40 03B","OBJECT_ID":"2025-199B","EPOCH":"2026-03-10T00:01:41.907936","MEAN_MOTION":14.12426909,"ECCENTRICITY":0.00025675,"INCLINATION":85.9851,"RA_OF_ASC_NODE":88.6192,"ARG_OF_PERICENTER":88.5061,"MEAN_ANOMALY":271.6416,"EPHEMERIS_TYPE":0,"CLASSIFICATION_TYPE":"U","NORAD_CAT_ID":65545,"ELEMENT_SET_NO":999,"REV_AT_EPOCH":2603,"BSTAR":7.1131011e-5,"MEAN_MOTION_DOT":1.5e-6,"MEAN_MOTION_DDOT":0},{"OBJECT_NAME":"FENGYUN 1C DEB","OBJECT_ID":"1999-025AAK","EPOCH":"2026-03-09T13:46:13.245024","MEAN_MOTION":14.06454367,"ECCENTRICITY":0.012783,"INCLINATION":98.3966,"RA_OF_ASC_NODE":285.0546,"ARG_OF_PERICENTER":6.1695,"MEAN_ANOMALY":354.1014,"EPHEMERIS_TYPE":0,"CLASSIFICATION_TYPE":"U","NORAD_CAT_ID":30322,"ELEMENT_SET_NO":999,"REV_AT_EPOCH":97420,"BSTAR":0.0010497,"MEAN_MOTION_DOT":1.829e-5,"MEAN_MOTION_DDOT":0}]
